[{"OBJECT_NAME":"STARLINK-35444","OBJECT_ID":"2025-263AC","EPOCH":"2026-03-09T02:56:02.154624","MEAN_MOTION":15.2761041,"ECCENTRICITY":0.00019307,"INCLINATION":43.004,"RA_OF_ASC_NODE":353.7617,"ARG_OF_PERICENTER":243.9267,"MEAN_ANOMALY":116.1386,"EPHEMERIS_TYPE":0,"CLASSIFICATION_TYPE":"U","NORAD_CAT_ID":66511,"ELEMENT_SET_NO":999,"REV_AT_EPOCH":1881,"BSTAR":0.0013985212,"MEAN_MOTION_DOT":0.00038459,"MEAN_MOTION_DDOT":0},{"OBJECT_NAME":"CZ-6A DEB","OBJECT_ID":"2024-140GE","EPOCH":"2026-03-09T23:15:37.114848","MEAN_MOTION":15.28179091,"ECCENTRICITY":0.00907227,"INCLINATION":89.625,"RA_OF_ASC_NODE":325.5051,"ARG_OF_PERICENTER":77.5431,"MEAN_ANOMALY":283.5952,"EPHEMERIS_TYPE":0,"CLASSIFICATION_TYPE":"U","NORAD_CAT_ID":60803,"ELEMENT_SET_NO":999,"REV_AT_EPOCH":8608,"BSTAR":0.0028689301,"MEAN_MOTION_DOT":0.00089907,"MEAN_MOTION_DDOT":0}]
